     3.02           N: GNSS NAV DATA    M: Mixed            RINEX VERSION / TYPE
RTKCONV 2.4.3 b33   Joao Manito         20210122 130023 UTC PGM / RUN BY / DATE 
log: D:\Personal\Google Drive (joao.manito@tecnico.ulisboa  COMMENT             
format: u-blox                                              COMMENT             
GPSA   1.2107E-08 -7.4506E-09 -1.1921E-07  5.9605E-08       IONOSPHERIC CORR    
GPSB   9.6256E+04 -3.2768E+04 -1.9661E+05  1.9661E+05       IONOSPHERIC CORR    
GPUT  3.7252902985E-09 1.421085472E-14 147456 2130          TIME SYSTEM CORR    
    18                                                      LEAP SECONDS        
                                                            END OF HEADER       
S23 2020 10 31 15 12 48  .000000000000E+00  .000000000000E+00  .573171000000E+06
      .359446000000E+05  .000000000000E+00  .000000000000E+00  .100000000000E+01
      .220441400000E+05  .000000000000E+00  .000000000000E+00  .819200000000E+04
      .000000000000E+00  .000000000000E+00  .000000000000E+00  .000000000000E+00
S36 2020 10 31 15 13  4  .000000000000E+00  .000000000000E+00  .573195000000E+06
      .420036880000E+05  .000000000000E+00  .000000000000E+00  .100000000000E+01
      .367484696000E+04  .000000000000E+00  .000000000000E+00  .819200000000E+04
      .000000000000E+00  .000000000000E+00  .000000000000E+00  .000000000000E+00
S23 2020 10 31 15 14 56  .000000000000E+00  .000000000000E+00  .573299000000E+06
      .359446000000E+05  .000000000000E+00  .000000000000E+00  .100000000000E+01
      .220441400000E+05  .000000000000E+00  .000000000000E+00  .819200000000E+04
      .000000000000E+00  .000000000000E+00  .000000000000E+00  .000000000000E+00
S36 2020 10 31 15 15 12  .000000000000E+00  .000000000000E+00  .573323000000E+06
      .420036880000E+05  .000000000000E+00  .000000000000E+00  .100000000000E+01
      .367484696000E+04  .000000000000E+00  .000000000000E+00  .819200000000E+04
      .000000000000E+00  .000000000000E+00  .000000000000E+00  .000000000000E+00
S23 2020 10 31 15 17  4  .000000000000E+00  .000000000000E+00  .573427000000E+06
      .359446000000E+05  .000000000000E+00  .000000000000E+00  .100000000000E+01
      .220441400000E+05  .000000000000E+00  .000000000000E+00  .819200000000E+04
      .000000000000E+00  .000000000000E+00  .000000000000E+00  .000000000000E+00
S36 2020 10 31 15 17 20  .000000000000E+00  .000000000000E+00  .573451000000E+06
      .420036880000E+05  .000000000000E+00  .000000000000E+00  .100000000000E+01
      .367484696000E+04  .000000000000E+00  .000000000000E+00  .819200000000E+04
      .000000000000E+00  .000000000000E+00  .000000000000E+00  .000000000000E+00
S23 2020 10 31 15 19 12  .000000000000E+00  .000000000000E+00  .573555000000E+06
      .359446000000E+05  .000000000000E+00  .000000000000E+00  .100000000000E+01
      .220441400000E+05  .000000000000E+00  .000000000000E+00  .819200000000E+04
      .000000000000E+00  .000000000000E+00  .000000000000E+00  .000000000000E+00
S36 2020 10 31 15 19 28  .000000000000E+00  .000000000000E+00  .573579000000E+06
      .420036880000E+05  .000000000000E+00  .000000000000E+00  .100000000000E+01
      .367484696000E+04  .000000000000E+00  .000000000000E+00  .819200000000E+04
      .000000000000E+00  .000000000000E+00  .000000000000E+00  .000000000000E+00
S23 2020 10 31 15 21 20  .000000000000E+00  .000000000000E+00  .573683000000E+06
      .359446000000E+05  .000000000000E+00  .000000000000E+00  .100000000000E+01
      .220441400000E+05  .000000000000E+00  .000000000000E+00  .819200000000E+04
      .000000000000E+00  .000000000000E+00  .000000000000E+00  .000000000000E+00
S36 2020 10 31 15 21 36  .000000000000E+00  .000000000000E+00  .573708000000E+06
      .420036880000E+05  .000000000000E+00  .000000000000E+00  .100000000000E+01
      .367484696000E+04  .000000000000E+00  .000000000000E+00  .819200000000E+04
      .000000000000E+00  .000000000000E+00  .000000000000E+00  .000000000000E+00
S23 2020 10 31 15 23 28  .000000000000E+00  .000000000000E+00  .573812000000E+06
      .359446000000E+05  .000000000000E+00  .000000000000E+00  .100000000000E+01
      .220441400000E+05  .000000000000E+00  .000000000000E+00  .819200000000E+04
      .000000000000E+00  .000000000000E+00  .000000000000E+00  .000000000000E+00
S36 2020 10 31 15 23 44  .000000000000E+00  .000000000000E+00  .573836000000E+06
      .420036880000E+05  .000000000000E+00  .000000000000E+00  .100000000000E+01
      .367484696000E+04  .000000000000E+00  .000000000000E+00  .819200000000E+04
      .000000000000E+00  .000000000000E+00  .000000000000E+00  .000000000000E+00
S23 2020 10 31 15 25 36  .000000000000E+00  .000000000000E+00  .573940000000E+06
      .359446000000E+05  .000000000000E+00  .000000000000E+00  .100000000000E+01
      .220441400000E+05  .000000000000E+00  .000000000000E+00  .819200000000E+04
      .000000000000E+00  .000000000000E+00  .000000000000E+00  .000000000000E+00
S36 2020 10 31 15 25 52  .000000000000E+00  .000000000000E+00  .573964000000E+06
      .420036880000E+05  .000000000000E+00  .000000000000E+00  .100000000000E+01
      .367484696000E+04  .000000000000E+00  .000000000000E+00  .819200000000E+04
      .000000000000E+00  .000000000000E+00  .000000000000E+00  .000000000000E+00
G24 2020 10 31 16  0  0  .707432627678E-05 -.454747350886E-12  .000000000000E+00
      .390000000000E+02  .680937500000E+02  .482020078071E-08 -.793996056254E+00
      .350177288055E-05  .103879099479E-01  .104140490294E-04  .515363865471E+04
      .576000000000E+06  .165775418282E-06 -.289826427671E+01  .184401869774E-06
      .936309241952E+00  .166250000000E+03  .691060795330E+00 -.822677124947E-08
     -.124290891500E-09  .100000000000E+01  .212900000000E+04  .000000000000E+00
      .200000000000E+01  .000000000000E+00  .279396772385E-08  .390000000000E+02
      .573996000000E+06  .400000000000E+01
S23 2020 10 31 15 27 44  .000000000000E+00  .000000000000E+00  .574068000000E+06
      .359446000000E+05  .000000000000E+00  .000000000000E+00  .100000000000E+01
      .220441400000E+05  .000000000000E+00  .000000000000E+00  .819200000000E+04
      .000000000000E+00  .000000000000E+00  .000000000000E+00  .000000000000E+00
S36 2020 10 31 15 28  0  .000000000000E+00  .000000000000E+00  .574092000000E+06
      .420036880000E+05  .000000000000E+00  .000000000000E+00  .100000000000E+01
      .367484696000E+04  .000000000000E+00  .000000000000E+00  .819200000000E+04
      .000000000000E+00  .000000000000E+00  .000000000000E+00  .000000000000E+00
S23 2020 10 31 15 29 52  .000000000000E+00  .000000000000E+00  .574196000000E+06
      .359446000000E+05  .000000000000E+00  .000000000000E+00  .100000000000E+01
      .220441400000E+05  .000000000000E+00  .000000000000E+00  .819200000000E+04
      .000000000000E+00  .000000000000E+00  .000000000000E+00  .000000000000E+00
S36 2020 10 31 15 30  8  .000000000000E+00  .000000000000E+00  .574220000000E+06
      .420036880000E+05  .000000000000E+00  .000000000000E+00  .100000000000E+01
      .367484696000E+04  .000000000000E+00  .000000000000E+00  .819200000000E+04
      .000000000000E+00  .000000000000E+00  .000000000000E+00  .000000000000E+00
S23 2020 10 31 15 32  0  .000000000000E+00  .000000000000E+00  .574324000000E+06
      .359446000000E+05  .000000000000E+00  .000000000000E+00  .100000000000E+01
      .220441400000E+05  .000000000000E+00  .000000000000E+00  .819200000000E+04
      .000000000000E+00  .000000000000E+00  .000000000000E+00  .000000000000E+00
S36 2020 10 31 15 32 16  .000000000000E+00  .000000000000E+00  .574348000000E+06
      .420036880000E+05  .000000000000E+00  .000000000000E+00  .100000000000E+01
      .367484696000E+04  .000000000000E+00  .000000000000E+00  .819200000000E+04
      .000000000000E+00  .000000000000E+00  .000000000000E+00  .000000000000E+00
S23 2020 10 31 15 34  8  .000000000000E+00  .000000000000E+00  .574452000000E+06
      .359446000000E+05  .000000000000E+00  .000000000000E+00  .100000000000E+01
      .220441400000E+05  .000000000000E+00  .000000000000E+00  .819200000000E+04
      .000000000000E+00  .000000000000E+00  .000000000000E+00  .000000000000E+00
S36 2020 10 31 15 34 24  .000000000000E+00  .000000000000E+00  .574476000000E+06
      .420036880000E+05  .000000000000E+00  .000000000000E+00  .100000000000E+01
      .367484696000E+04  .000000000000E+00  .000000000000E+00  .819200000000E+04
      .000000000000E+00  .000000000000E+00  .000000000000E+00  .000000000000E+00
S23 2020 10 31 15 36 16  .000000000000E+00  .000000000000E+00  .574580000000E+06
      .359446000000E+05  .000000000000E+00  .000000000000E+00  .100000000000E+01
      .220441400000E+05  .000000000000E+00  .000000000000E+00  .819200000000E+04
      .000000000000E+00  .000000000000E+00  .000000000000E+00  .000000000000E+00
S36 2020 10 31 15 36 32  .000000000000E+00  .000000000000E+00  .574604000000E+06
      .420036880000E+05  .000000000000E+00  .000000000000E+00  .100000000000E+01
      .367484696000E+04  .000000000000E+00  .000000000000E+00  .819200000000E+04
      .000000000000E+00  .000000000000E+00  .000000000000E+00  .000000000000E+00
S23 2020 10 31 15 38 24  .000000000000E+00  .000000000000E+00  .574708000000E+06
      .359446000000E+05  .000000000000E+00  .000000000000E+00  .100000000000E+01
      .220441400000E+05  .000000000000E+00  .000000000000E+00  .819200000000E+04
      .000000000000E+00  .000000000000E+00  .000000000000E+00  .000000000000E+00
S36 2020 10 31 15 38 40  .000000000000E+00  .000000000000E+00  .574732000000E+06
      .420036880000E+05  .000000000000E+00  .000000000000E+00  .100000000000E+01
      .367484696000E+04  .000000000000E+00  .000000000000E+00  .819200000000E+04
      .000000000000E+00  .000000000000E+00  .000000000000E+00  .000000000000E+00
